NORAD_CAT_ID,OBJECT_NAME,OBJECT_TYPE,EPOCH,MEAN_MOTION,ECCENTRICITY,INCLINATION,RA_OF_ASC_NODE,ARG_OF_PERICENTER,MEAN_ANOMALY,BSTAR,MEAN_MOTION_DOT,MEAN_MOTION_DDOT,TLE_LINE0,TLE_LINE1,TLE_LINE2,SEMIMAJOR_AXIS,PERIOD,APOGEE,PERIGEE,DECAYED
52636.0,STARLINK-3967,PAYLOAD,2024-04-30 14:31:08,15.08841709,0.0001275,53.2161,73.1622,89.4628,270.651,0.00015508,2.181e-05,0.0,0 STARLINK-3967,1 52636U 22052AQ  24121.60495814  .00002181  00000-0  15508-3 0  9994,2 52636  53.2161  73.1622 0001275  89.4628 270.6510 15.08841709108626,6917.875,95.437,540.622,538.858,0.0
52636.0,STARLINK-3967,PAYLOAD,2024-05-01 03:14:13,15.08838848,0.0001327,53.2165,70.7843,87.1205,272.9939,6.6873e-05,7.77e-06,0.0,0 STARLINK-3967,1 52636U 22052AQ  24122.13488035  .00000777  00000-0  66873-4 0  9991,2 52636  53.2165  70.7843 0001327  87.1205 272.9939 15.08838848109083,6917.884,95.438,540.667,538.831,0.0
52636.0,STARLINK-3967,PAYLOAD,2024-05-01 20:43:27,15.08852217,0.0001727,53.2196,67.5141,86.2921,273.8268,9.5293e-06,-1.36e-06,0.0,0 STARLINK-3967,1 52636U 22052AQ  24122.86351374 -.00000136  00000-0  95293-5 0  9995,2 52636  53.2196  67.5141 0001727  86.2921 273.8268 15.08852217109194,6917.843,95.437,540.903,538.513,0.0
52636.0,STARLINK-3967,PAYLOAD,2024-05-02 12:37:19,15.08830421,0.0001425,53.2182,64.5393,95.1133,265.0022,0.00043205,6.593e-05,0.0,0 STARLINK-3967,1 52636U 22052AQ  24123.52592386  .00006593  00000-0  43205-3 0  9995,2 52636  53.2182  64.5393 0001425  95.1133 265.0022 15.08830421109299,6917.91,95.438,540.76,538.789,0.0
52636.0,STARLINK-3967,PAYLOAD,2024-05-03 02:55:46,15.08849157,0.0001295,53.2172,61.8609,103.5494,256.5643,0.00015292,2.147e-05,0.0,0 STARLINK-3967,1 52636U 22052AQ  24124.12207063  .00002147  00000-0  15292-3 0  9993,2 52636  53.2172  61.8609 0001295 103.5494 256.5643 15.08849157109387,6917.852,95.437,540.613,538.822,0.0
52636.0,STARLINK-3967,PAYLOAD,2024-05-03 12:28:06,15.08842541,0.0001398,53.2179,60.0772,77.5057,282.6092,5.0743e-05,5.2e-06,0.0,0 STARLINK-3967,1 52636U 22052AQ  24124.51951459  .00000520  00000-0  50743-4 0  9995,2 52636  53.2179  60.0772 0001398  77.5057 282.6092 15.08842541109440,6917.873,95.437,540.705,538.771,0.0
52636.0,STARLINK-3967,PAYLOAD,2024-05-04 01:11:12,15.08820959,0.0001207,53.217,57.7011,88.5226,271.5905,-0.000257,-4.373e-05,0.0,0 STARLINK-3967,1 52636U 22052AQ  24125.04944802 -.00004373  00000-0 -25700-3 0  9994,2 52636  53.2170  57.7011 0001207  88.5226 271.5905 15.08820959109527,6917.939,95.439,540.639,538.969,0.0
52636.0,STARLINK-3967,PAYLOAD,2024-05-04 18:40:26,15.08839525,0.0001564,53.2184,54.4287,87.6212,272.496,3.9398e-05,3.39e-06,0.0,0 STARLINK-3967,1 52636U 22052AQ  24125.77808812  .00000339  00000-0  39398-4 0  9999,2 52636  53.2184  54.4287 0001564  87.6212 272.4960 15.08839525109634,6917.882,95.438,540.829,538.665,0.0
52636.0,STARLINK-3967,PAYLOAD,2024-05-05 04:12:45,15.08849091,0.0001079,53.2175,52.6442,85.9576,274.154,0.00046858,7.179e-05,0.0,0 STARLINK-3967,1 52636U 22052AQ  24126.17552436  .00007179  00000-0  46858-3 0  9999,2 52636  53.2175  52.6442 0001079  85.9576 274.1540 15.08849091109690,6917.853,95.437,540.464,538.971,0.0
52636.0,STARLINK-3967,PAYLOAD,2024-05-06 12:00:27,15.08855626,0.0001232,53.2175,46.6966,80.1245,279.9887,0.00043733,6.682e-05,0.0,0 STARLINK-3967,1 52636U 22052AQ  24127.50031871  .00006682  00000-0  43733-3 0  9999,2 52636  53.2175  46.6966 0001232  80.1245 279.9887 15.08855626109895,6917.833,95.437,540.55,538.845,0.0
52636.0,STARLINK-3967,PAYLOAD,2024-05-07 11:51:14,15.0884939,0.0001345,53.2176,42.2387,71.5531,288.5608,0.00016469,2.335e-05,0.0,0 STARLINK-3967,1 52636U 22052AQ  24128.49391552  .00002335  00000-0  16469-3 0  9990,2 52636  53.2176  42.2387 0001345  71.5531 288.5608 15.08849390110049,6917.852,95.437,540.647,538.786,0.0
52636.0,STARLINK-3967,PAYLOAD,2024-05-07 18:12:47,15.08841509,0.0001682,53.2208,41.0467,103.3775,256.7404,-6.3786e-05,-1.303e-05,0.0,0 STARLINK-3967,1 52636U 22052AQ  24128.75887880 -.00001303  00000-0 -63786-4 0  9994,2 52636  53.2208  41.0467 0001682 103.3775 256.7404 15.08841509110088,6917.876,95.437,540.904,538.577,0.0
52636.0,STARLINK-3967,PAYLOAD,2024-05-07 21:23:33,15.08839422,0.0001637,53.2184,40.4502,112.7118,247.4047,-6.5822e-05,-1.335e-05,0.0,0 STARLINK-3967,1 52636U 22052AQ  24128.89135841 -.00001335  00000-0 -65822-4 0  9990,2 52636  53.2184  40.4502 0001637 112.7118 247.4047 15.08839422109729,6917.882,95.438,540.88,538.615,0.0
52636.0,STARLINK-3967,PAYLOAD,2024-05-08 00:34:19,15.08838514,0.0001328,53.2185,39.8582,96.663,263.4513,-9.2518e-05,-1.76e-05,0.0,0 STARLINK-3967,1 52636U 22052AQ  24129.02384106 -.00001760  00000-0 -92518-4 0  9990,2 52636  53.2185  39.8582 0001328  96.6630 263.4513 15.08838514109745,6917.885,95.438,540.669,538.831,0.0
52636.0,STARLINK-3967,PAYLOAD,2024-05-08 21:14:20,15.08845372,0.0001383,53.2188,35.9926,97.256,262.859,0.00026048,3.861e-05,0.0,0 STARLINK-3967,1 52636U 22052AQ  24129.88496213  .00003861  00000-0  26048-3 0  9993,2 52636  53.2188  35.9926 0001383  97.2560 262.8590 15.08845372110253,6917.864,95.437,540.686,538.772,0.0
52636.0,STARLINK-3967,PAYLOAD,2024-05-08 22:49:43,15.08846457,0.0001416,53.2188,35.6957,94.6786,265.4368,0.0003955,6.013e-05,0.0,0 STARLINK-3967,1 52636U 22052AQ  24129.95120274  .00006013  00000-0  39550-3 0  9996,2 52636  53.2188  35.6957 0001416  94.6786 265.4368 15.08846457109886,6917.861,95.437,540.705,538.746,0.0
52636.0,STARLINK-3967,PAYLOAD,2024-05-09 00:25:06,15.08851662,0.0001279,53.2187,35.3992,90.685,269.4289,0.0005611,8.656e-05,0.0,0 STARLINK-3967,1 52636U 22052AQ  24130.01744170  .00008656  00000-0  56110-3 0  9998,2 52636  53.2187  35.3992 0001279  90.6850 269.4289 15.08851662109897,6917.845,95.437,540.595,538.825,0.0
52636.0,STARLINK-3967,PAYLOAD,2024-05-09 21:05:07,15.08847633,0.0001259,53.2176,31.532,91.4205,268.6932,0.00047178,7.23e-05,0.0,0 STARLINK-3967,1 52636U 22052AQ  24130.87856337  .00007230  00000-0  47178-3 0  9992,2 52636  53.2176  31.5320 0001259  91.4205 268.6932 15.08847633110407,6917.857,95.437,540.593,538.851,0.0
52636.0,STARLINK-3967,PAYLOAD,2024-05-09 22:40:30,15.0885339,0.0001324,53.2186,31.236,93.7036,266.4107,0.00056,8.639e-05,0.0,0 STARLINK-3967,1 52636U 22052AQ  24130.94480312  .00008639  00000-0  56000-3 0  9994,2 52636  53.2186  31.2360 0001324  93.7036 266.4107 15.08853390110035,6917.839,95.437,540.62,538.789,0.0
52636.0,STARLINK-3967,PAYLOAD,2024-05-10 09:48:13,15.08846837,0.0001364,53.2181,29.1529,87.0161,273.0987,0.00045157,6.907e-05,0.0,0 STARLINK-3967,1 52636U 22052AQ  24131.40848411  .00006907  00000-0  45157-3 0  9991,2 52636  53.2181  29.1529 0001364  87.0161 273.0987 15.08846837110489,6917.859,95.437,540.668,538.781,0.0
52636.0,STARLINK-3967,PAYLOAD,2024-05-10 22:31:17,15.08852117,0.0001434,53.2183,26.7771,97.4679,262.6476,0.00063871,9.895e-05,0.0,0 STARLINK-3967,1 52636U 22052AQ  24131.93840187  .00009895  00000-0  63871-3 0  9993,2 52636  53.2183  26.7771 0001434  97.4679 262.6476 15.08852117110182,6917.843,95.437,540.7,538.716,0.0
52636.0,STARLINK-3967,PAYLOAD,2024-05-11 01:42:03,15.08876027,0.000142,53.2184,26.1809,118.2586,241.855,0.0013919,0.00021955,0.0,0 STARLINK-3967,1 52636U 22052AQ  24132.07087518  .00021955  00000-0  13919-2 0  9998,2 52636  53.2184  26.1809 0001420 118.2586 241.8550 15.08876027110585,6917.77,95.435,540.618,538.653,0.0
52636.0,STARLINK-3967,PAYLOAD,2024-05-11 20:46:40,15.08838224,7.93e-05,53.217,22.6114,108.1085,251.9993,-0.00065607,-0.00010713,0.0,0 STARLINK-3967,1 52636U 22052AQ  24132.86574947 -.00010713  00000-0 -65607-3 0  9996,2 52636  53.2170  22.6114 0000793 108.1085 251.9993 15.08838224110708,6917.886,95.438,540.299,539.202,0.0
52636.0,STARLINK-3967,PAYLOAD,2024-05-11 22:22:04,15.08797241,0.0001144,53.217,22.3142,69.3053,290.8061,-0.002226,-0.00035498,0.0,0 STARLINK-3967,1 52636U 22052AQ  24132.93199917 -.00035498  00000-0 -22260-2 0  9998,2 52636  53.2170  22.3142 0001144  69.3053 290.8061 15.08797241110330,6918.011,95.44,540.668,539.085,0.0
52636.0,STARLINK-3967,PAYLOAD,2024-05-12 01:32:51,15.08790472,8.49e-05,53.2168,21.7203,107.5754,252.5331,-0.0020892,-0.00033338,0.0,0 STARLINK-3967,1 52636U 22052AQ  24133.06448133 -.00033338  00000-0 -20892-2 0  9990,2 52636  53.2168  21.7203 0000849 107.5754 252.5331 15.08790472110730,6918.032,95.441,540.484,539.309,0.0
52636.0,STARLINK-3967,PAYLOAD,2024-05-12 09:29:48,15.08781882,9.12e-05,53.2166,20.2328,92.2552,267.8545,-0.00096066,-0.00015519,0.0,0 STARLINK-3967,1 52636U 22052AQ  24133.39569671 -.00015519  00000-0 -96066-3 0  9995,2 52636  53.2166  20.2328 0000912  92.2552 267.8545 15.08781882110402,6918.058,95.441,540.554,539.292,0.0
52636.0,STARLINK-3967,PAYLOAD,2024-05-12 20:37:32,15.08800829,0.0001871,53.2162,18.1548,84.9847,275.1359,0.0013846,0.00021793,0.0,0 STARLINK-3967,1 52636U 22052AQ  24133.85939863  .00021793  00000-0  13846-2 0  9993,2 52636  53.2162  18.1548 0001871  84.9847 275.1359 15.08800829110855,6918.0,95.44,541.159,538.571,0.0
52636.0,STARLINK-3967,PAYLOAD,2024-05-12 22:12:55,15.08806745,0.0001916,53.2163,17.8577,85.0557,275.0654,0.001468,0.00023131,0.0,0 STARLINK-3967,1 52636U 22052AQ  24133.92564001  .00023131  00000-0  14680-2 0  9994,2 52636  53.2163  17.8577 0001916  85.0557 275.0654 15.08806745110483,6917.982,95.44,541.173,538.522,0.0
52636.0,STARLINK-3967,PAYLOAD,2024-05-12 23:48:18,15.08827992,0.0001057,53.217,17.5553,114.9714,245.1388,0.0032137,0.00051213,0.0,0 STARLINK-3967,1 52636U 22052AQ  24133.99187603  .00051213  00000-0  32137-2 0  9999,2 52636  53.2170  17.5553 0001057 114.9714 245.1388 15.08827992110877,6917.917,95.438,540.513,539.051,0.0
52636.0,STARLINK-3967,PAYLOAD,2024-05-13 09:20:36,15.08861478,0.0001149,53.2164,15.7725,93.8799,266.2324,0.001644,0.00025988,0.0,0 STARLINK-3967,1 52636U 22052AQ  24134.38931287  .00025988  00000-0  16440-2 0  9997,2 52636  53.2164  15.7725 0001149  93.8799 266.2324 15.08861478110557,6917.815,95.436,540.475,538.885,0.0
